EYESAT-1 (AO-27)        
1 22825U 93061C   17364.87656600  .00000000  00000-0  17832-4 0  9992
2 22825  98.8405 333.1503 0009350 114.4467 245.7691 14.30018010265248
CUTE-1 (CO-55)          
1 27844U 03031E   17365.01328500  .00000076  00000-0  53915-4 0  9993
2 27844  98.6884  11.1426 0010531 134.2553 225.9491 14.22085803752298
CUBESAT XI-IV (CO-57)   
1 27848U 03031J   17364.85563719  .00000058  00000-0  46257-4 0  9992
2 27848  98.6974  11.3256 0010276 143.7808 216.4067 14.21693731752118
CUBESAT XI 5            
1 28895U 05043F   17364.95105650  .00000149  00000-0  37446-4 0  9998
2 28895  97.8848 158.4641 0015739 238.8860 121.0800 14.63492529649036
CUTE-1.7+APD II (CO-65) 
1 32785U 08021C   17364.87510381  .00000262  00000-0  34103-4 0  9995
2 32785  97.5543  20.0358 0011917 232.6539 127.3594 14.88037429524072
COMPASS-1               
1 32787U 08021E   17364.95874152  .00000754  00000-0  77886-4 0  9996
2 32787  97.5417  30.1569 0012184 194.7820 165.3045 14.92869793524804
AAUSAT-II               
1 32788U 08021F   17364.73998332  .00000293  00000-0  32383-4 0  9991
2 32788  97.5390  33.1219 0011768 186.0127 174.0954 14.94171089524926
DELFI-C3 (DO-64)        
1 32789U 08021G   17365.19468058  .00001002  00000-0  73536-4 0  9994
2 32789  97.5354  59.0970 0013507 145.9260 214.2837 15.05635735526502
CANX-2                  
1 32790U 08021H   17364.82462033  .00000235  00000-0  31372-4 0  9991
2 32790  97.5537  18.2433 0012550 235.0993 124.9045 14.87748821524077
SEEDS II (CO-66)        
1 32791U 08021J   17364.63200061  .00000339  00000-0  40168-4 0  9990
2 32791  97.5477  24.7467 0012590 214.4634 145.5769 14.90432981524407
SWISSCUBE               
1 35932U 09051B   17364.94687355  .00000143  00000-0  43324-4 0  9993
2 35932  98.5207 147.3125 0007733  15.3459 344.7971 14.56105664438913
BEESAT                  
1 35933U 09051C   17365.05513426  .00000131  00000-0  40527-4 0  9993
2 35933  98.5247 148.8614 0006236  30.0790 330.0764 14.56215146439079
ITUPSAT 1               
1 35935U 09051E   17365.15277885  .00000106  00000-0  35573-4 0  9999
2 35935  98.5358 149.2158 0008405  21.6395 338.5156 14.55399001438887
TISAT 1                 
1 36799U 10035E   17364.84074419  .00000537  00000-0  60848-4 0  9996
2 36799  98.0837 131.8736 0013183  46.1040 314.1263 14.90654749405076
M-CUBED & EXP-1 PRIME   
1 37855U 11061F   17364.85149580  .00000940  00000-0  56554-4 0  9990
2 37855 101.7206 336.2704 0177882 220.1902 138.6043 15.03953380335879
HORYU 2                 
1 38340U 12025D   17365.10054834  .00000258  00000-0  45982-4 0  9992
2 38340  98.3751  15.9717 0012182  31.2248 328.9682 14.75476011302321
STRAND-1                
1 39090U 13009E   17364.51325327  .00000053  00000-0  33860-4 0  9995
2 39090  98.5344 207.9301 0010289  79.2539 280.9804 14.35004262253618
BRITE-AUSTRIA           
1 39091U 13009F   17364.51974692  .00000005  00000-0  17222-4 0  9992
2 39091  98.5309 207.2627 0011639  85.9755 274.2761 14.35054956253655
UNIBRITE                
1 39092U 13009G   17364.60600506  .00000023  00000-0  23528-4 0  9999
2 39092  98.5320 207.0216 0010490  80.0492 280.1877 14.34929378253639
AIST-2                  
1 39133U 13015D   17365.20864311  .00000187  00000-0  25796-4 0  9995
2 39133  64.8736  22.8349 0035242 249.0815 110.6531 15.04462093257935
SOMP                    
1 39134U 13015E   17364.84584364  .00001401  00000-0  76315-4 0  9995
2 39134  64.8644 311.2589 0029587 232.5620 127.2814 15.18676877258954
BEESAT-3                
1 39135U 13015F   17364.86057794  .00001399  00000-0  81313-4 0  9990
2 39135  64.8697 322.4224 0030579 256.3603 103.4116 15.16282551258738
BEESAT-2                
1 39136U 13015G   17364.90408530  .00001308  00000-0  77714-4 0  9994
2 39136  64.8705 324.6235 0032200 254.7969 104.9595 15.15770452259082
NEE-01 PEGASUS          
1 39151U 13018B   17365.21176114  .00000181  00000-0  31024-4 0  9991
2 39151  97.9801  95.4703 0018226 130.1150 230.1662 14.79834455252675
CUBEBUG-1 (CAPITAN BETO)
1 39153U 13018D   17365.20682211  .00000238  00000-0  38138-4 0  9998
2 39153  97.9830  96.4485 0018155 128.1450 232.1401 14.80316873252740
ESTCUBE 1               
1 39161U 13021C   17365.13163867  .00000185  00000-0  37453-4 0  9994
2 39161  98.0188  88.4878 0008405 228.9618 131.0865 14.72003162249726
POPACS 1                
1 39268U 13055D   17364.85329110  .00003092  00000-0  87445-4 0  9998
2 39268  81.0015 162.6691 0643318   2.0976 358.2667 14.32901398218867
POPACS 2                
1 39269U 13055E   17364.92399377  .00001592  00000-0  45060-4 0  9999
2 39269  81.0136 181.1598 0695961  50.1568 315.8747 14.21296500218011
POPACS 3                
1 39270U 13055F   17364.81418272  .00001191  00000-0  35670-4 0  9996
2 39270  81.0159 191.5247 0722355  81.1262 287.0931 14.14136775197859
ZACUBE-1 (TSHEPISOSAT)  
1 39417U 13066B   17364.86716334  .00000266  00000-0  40156-4 0  9993
2 39417  97.6069  37.3228 0058799 347.8274  12.1515 14.80851391221887
WNISAT-1                
1 39423U 13066H   17365.17073341  .00000051  00000-0  19742-4 0  9998
2 39423  97.7052 337.4647 0175226 181.9031 178.1526 14.52911322217834
TRITON-1                
1 39427U 13066M   17364.96816600  .00000253  00000-0  48081-4 0  9993
2 39427  97.6362   7.1173 0115582  78.5076 282.9083 14.67589554219710
GOMX 1                  
1 39430U 13066Q   17365.01020747  .00000217  00000-0  48056-4 0  9995
2 39430  97.6795 349.1928 0152525 141.0801 220.1500 14.58997420218634
BRITE-PL                
1 39431U 13066R   17365.14281954 -.00000001  00000-0  10289-4 0  9998
2 39431  97.7345 325.7092 0201491 225.9499 132.4949 14.46899887216928
HUMSAT-D                
1 39433U 13066T   17364.94909218  .00000332  00000-0  38274-4 0  9997
2 39433  97.6287  62.0124 0029564 283.1255  76.6665 14.91704130222169
EAGLE 2                 
1 39436U 13066W   17364.92554966  .00048815  00000-0  75451-3 0  9999
2 39436  97.7121 122.5842 0005582  88.2104 271.9788 15.53936643225850
CUBEBUG-2 (LO-74)       
1 39440U 13066AA  17364.63535998  .00000277  00000-0  45699-4 0  9998
2 39440  97.6121  24.8005 0081133  23.8506 336.6430 14.75588806219860
NEE-02 KRYSAOR          
1 39441U 13066AB  17365.02733783  .00000188  00000-0  33823-4 0  9992
2 39441  97.6111  23.5925 0082655  26.8970 333.6488 14.74717812220991
FUNCUBE-1 (AO-73)       
1 39444U 13066AE  17365.15301038  .00000327  00000-0  46957-4 0  9990
2 39444  97.6081  38.9034 0057812 342.8626  17.0634 14.81612727220776
UWE-3                   
1 39446U 13066AG  17364.94667472  .00000280  00000-0  43992-4 0  9999
2 39446  97.6082  30.9017 0070366   5.5899 354.6082 14.78122202219670
BRITE-TORONTO           
1 40020U 14033L   17365.16519164  .00000143  00000-0  32681-4 0  9994
2 40020  97.8069 226.7783 0088810  60.5524 300.4506 14.66456941188965
DUCHIFAT-1              
1 40021U 14033M   17364.72657733  .00000519  00000-0  59460-4 0  9992
2 40021  97.9172 278.1432 0013571  19.4728 340.7005 14.90154591191862
FLOCK 1C-10             
1 40023U 14033P   17364.70706866  .00000524  00000-0  61573-4 0  9998
2 40023  97.9187 276.9434 0013744  24.3736 335.8195 14.89072675191746
NANOSATC-BR1            
1 40024U 14033Q   17364.81989390  .00000384  00000-0  46279-4 0  9996
2 40024  97.9120 276.7969 0012889  21.3032 338.8719 14.89440714191298
QB50P1                  
1 40025U 14033R   17364.70508878  .00000344  00000-0  42957-4 0  9998
2 40025  97.9090 275.4158 0013159  25.0129 335.1723 14.88606522191217
FLOCK 1C-7              
1 40026U 14033S   17364.76102731  .00000254  00000-0  32369-4 0  9999
2 40026  97.9211 277.9910 0012161  22.0262 338.1487 14.89813714191813
FLOCK 1C-1              
1 40027U 14033T   17364.73408535  .00001176  00000-0  13038-3 0  9993
2 40027  97.9198 277.2565 0013631  22.0562 338.1244 14.89137810191764
POPSAT-HIP-1            
1 40028U 14033U   17365.15769029  .00000449  00000-0  54362-4 0  9997
2 40028  97.9120 276.2018 0014620  22.2390 337.9451 14.88468895191779
FLOCK 1C-2              
1 40029U 14033V   17364.96175511  .00000534  00000-0  62413-4 0  9994
2 40029  97.9187 277.3269 0014665  18.9670 341.2096 14.89181102191783
FLOCK 1C-4              
1 40031U 14033X   17364.72990390  .00001292  00000-0  14314-3 0  9999
2 40031  97.9173 277.0344 0015210  16.5296 343.6436 14.89003351191735
QB50P2                  
1 40032U 14033Y   17365.21476641  .00000306  00000-0  39244-4 0  9998
2 40032  97.9054 274.8293 0012427  19.3184 340.8501 14.88157081191748
FLOCK 1C-11             
1 40033U 14033Z   17365.06539077  .00001022  00000-0  11073-3 0  9990
2 40033  97.9239 279.2683 0012566  10.6404 349.5080 14.90401957191913
ANTELSAT                
1 40034U 14033AA  17364.70336220  .00000272  00000-0  47981-4 0  9990
2 40034  97.8333 242.2495 0059562  21.8372 338.5356 14.73837745189879
FLOCK 1C-9              
1 40035U 14033AB  17364.74208871  .00000758  00000-0  86078-4 0  9994
2 40035  97.9220 277.5592 0012571  11.9099 348.2385 14.89210537191762
FLOCK 1C-6              
1 40036U 14033AC  17364.81631441  .00000488  00000-0  57384-4 0  9994
2 40036  97.9213 277.8958 0012785  12.8054 347.3451 14.89315121191783
PERSEUS-M2              
1 40037U 14033AD  17364.78019085  .00000113  00000-0  19094-4 0  9996
2 40037  97.9058 272.4344 0015062  26.6776 333.5211 14.86309430191511
FLOCK 1C-5              
1 40038U 14033AE  17364.69202429  .00000380  00000-0  46101-4 0  9998
2 40038  97.9210 277.5364 0014927  11.7657 348.3917 14.89283689191766
PERSEUS-M1              
1 40039U 14033AF  17364.82971111  .00000084  00000-0  15975-4 0  9991
2 40039  97.9060 271.9438 0014847  23.1374 337.0507 14.85932026190967
FLOCK 1C-8              
1 40040U 14033AG  17364.76103450  .00000158  00000-0  21680-4 0  9991
2 40040  97.9261 280.4015 0013297 358.8286   1.2893 14.91242027191934
